ISS (ZARYA)
1 25544U 98067A   24124.86195602  .00014700  00000+0  25706-3 0  9994
2 25544  51.6395 175.1712 0003705 135.9355 196.2383 15.50870272451662
ISS (ZARYA)
1 25544U 98067A   24124.86195602  .00014700  00000+0  25706-3 0  9994
2 25544  51.6395 175.1712 0003705 135.9355 196.2383 15.50870272451662
ISS (ZARYA)
1 25544U 98067A   24125.66641341  .00016636  00000+0  28945-3 0  9997
2 25544  51.6399 171.1818 0003752 141.4783   5.1391 15.50905169451793
ISS (ZARYA)
1 25544U 98067A   24127.52966444  .00012027  00000+0  21129-3 0  9995
2 25544  51.6392 161.9404 0003574 140.2020 336.3855 15.50942079452085
